CCSDS_OMM_VERS = 2.0
CREATION_DATE  = 
ORIGINATOR     = 

OBJECT_NAME    = DELTA 2 R/B(1)
OBJECT_ID      = 1990-008B
CENTER_NAME    = EARTH
REF_FRAME      = TEME
TIME_SYSTEM    = UTC
MEAN_ELEMENT_THEORY = SGP/SGP4

EPOCH          = 2025-12-24T13:41:40.338528
MEAN_MOTION    = 15.46182265
ECCENTRICITY   = .01102863
INCLINATION    = 35.6078
RA_OF_ASC_NODE = 304.0816
ARG_OF_PERICENTER = 285.7253
MEAN_ANOMALY   = 73.1339

EPHEMERIS_TYPE = 0
CLASSIFICATION_TYPE = U
NORAD_CAT_ID   = 20453
ELEMENT_SET_NO = 999
REV_AT_EPOCH   = 91446
BSTAR          = .77080934E-3
MEAN_MOTION_DOT = .4978E-3
MEAN_MOTION_DDOT = 0

CCSDS_OMM_VERS = 2.0
CREATION_DATE  = 
ORIGINATOR     = 

OBJECT_NAME    = COSMOS 2058
OBJECT_ID      = 1990-010A
CENTER_NAME    = EARTH
REF_FRAME      = TEME
TIME_SYSTEM    = UTC
MEAN_ELEMENT_THEORY = SGP/SGP4

EPOCH          = 2025-12-25T01:54:10.570464
MEAN_MOTION    = 15.10589909
ECCENTRICITY   = .00094728
INCLINATION    = 82.4712
RA_OF_ASC_NODE = 120.8941
ARG_OF_PERICENTER = 225.7665
MEAN_ANOMALY   = 134.2788

EPHEMERIS_TYPE = 0
CLASSIFICATION_TYPE = U
NORAD_CAT_ID   = 20465
ELEMENT_SET_NO = 999
REV_AT_EPOCH   = 93097
BSTAR          = .32207711E-3
MEAN_MOTION_DOT = .535E-4
MEAN_MOTION_DDOT = 0

CCSDS_OMM_VERS = 2.0
CREATION_DATE  = 
ORIGINATOR     = 

OBJECT_NAME    = SL-14 R/B
OBJECT_ID      = 1990-010B
CENTER_NAME    = EARTH
REF_FRAME      = TEME
TIME_SYSTEM    = UTC
MEAN_ELEMENT_THEORY = SGP/SGP4

EPOCH          = 2025-12-25T00:30:59.597568
MEAN_MOTION    = 14.83482478
ECCENTRICITY   = .00196974
INCLINATION    = 82.5023
RA_OF_ASC_NODE = 337.5115
ARG_OF_PERICENTER = 181.3124
MEAN_ANOMALY   = 178.8043

EPHEMERIS_TYPE = 0
CLASSIFICATION_TYPE = U
NORAD_CAT_ID   = 20466
ELEMENT_SET_NO = 999
REV_AT_EPOCH   = 91741
BSTAR          = .58613479E-4
MEAN_MOTION_DOT = .507E-5
MEAN_MOTION_DDOT = 0

CCSDS_OMM_VERS = 2.0
CREATION_DATE  = 
ORIGINATOR     = 

OBJECT_NAME    = SL-14 R/B
OBJECT_ID      = 1990-018B
CENTER_NAME    = EARTH
REF_FRAME      = TEME
TIME_SYSTEM    = UTC
MEAN_ELEMENT_THEORY = SGP/SGP4

EPOCH          = 2025-12-25T05:42:04.871232
MEAN_MOTION    = 14.82059311
ECCENTRICITY   = .00159101
INCLINATION    = 82.5221
RA_OF_ASC_NODE = 292.6840
ARG_OF_PERICENTER = 342.5479
MEAN_ANOMALY   = 17.5186

EPHEMERIS_TYPE = 0
CLASSIFICATION_TYPE = U
NORAD_CAT_ID   = 20511
ELEMENT_SET_NO = 999
REV_AT_EPOCH   = 91155
BSTAR          = .66823879E-4
MEAN_MOTION_DOT = .555E-5
MEAN_MOTION_DDOT = 0

CCSDS_OMM_VERS = 2.0
CREATION_DATE  = 
ORIGINATOR     = 

OBJECT_NAME    = HST
OBJECT_ID      = 1990-037B
CENTER_NAME    = EARTH
REF_FRAME      = TEME
TIME_SYSTEM    = UTC
MEAN_ELEMENT_THEORY = SGP/SGP4

EPOCH          = 2025-12-24T20:58:38.435808
MEAN_MOTION    = 15.28198095
ECCENTRICITY   = .0002397
INCLINATION    = 28.4657
RA_OF_ASC_NODE = 189.8864
ARG_OF_PERICENTER = 20.4896
MEAN_ANOMALY   = 339.5795

EPHEMERIS_TYPE = 0
CLASSIFICATION_TYPE = U
NORAD_CAT_ID   = 20580
ELEMENT_SET_NO = 999
REV_AT_EPOCH   = 76185
BSTAR          = .21374E-3
MEAN_MOTION_DOT = .6269E-4
MEAN_MOTION_DDOT = 0

CCSDS_OMM_VERS = 2.0
CREATION_DATE  = 
ORIGINATOR     = 

OBJECT_NAME    = SL-16 R/B
OBJECT_ID      = 1990-046B
CENTER_NAME    = EARTH
REF_FRAME      = TEME
TIME_SYSTEM    = UTC
MEAN_ELEMENT_THEORY = SGP/SGP4

EPOCH          = 2025-12-25T06:12:12.308256
MEAN_MOTION    = 14.14997478
ECCENTRICITY   = .00122625
INCLINATION    = 70.9991
RA_OF_ASC_NODE = 94.2318
ARG_OF_PERICENTER = 51.6774
MEAN_ANOMALY   = 308.5449

EPHEMERIS_TYPE = 0
CLASSIFICATION_TYPE = U
NORAD_CAT_ID   = 20625
ELEMENT_SET_NO = 999
REV_AT_EPOCH   = 83786
BSTAR          = -.4374624E-4
MEAN_MOTION_DOT = -.132E-5
MEAN_MOTION_DDOT = 0

CCSDS_OMM_VERS = 2.0
CREATION_DATE  = 
ORIGINATOR     = 

OBJECT_NAME    = COSMOS 2084
OBJECT_ID      = 1990-055A
CENTER_NAME    = EARTH
REF_FRAME      = TEME
TIME_SYSTEM    = UTC
MEAN_ELEMENT_THEORY = SGP/SGP4

EPOCH          = 2025-12-24T23:49:08.883552
MEAN_MOTION    = 15.05088593
ECCENTRICITY   = .00297505
INCLINATION    = 62.7887
RA_OF_ASC_NODE = 230.2421
ARG_OF_PERICENTER = 176.3170
MEAN_ANOMALY   = 183.8155

EPHEMERIS_TYPE = 0
CLASSIFICATION_TYPE = U
NORAD_CAT_ID   = 20663
ELEMENT_SET_NO = 999
REV_AT_EPOCH   = 92507
BSTAR          = .21428623E-3
MEAN_MOTION_DOT = .2887E-4
MEAN_MOTION_DDOT = 0

CCSDS_OMM_VERS = 2.0
CREATION_DATE  = 
ORIGINATOR     = 

OBJECT_NAME    = SL-6 R/B(2)
OBJECT_ID      = 1990-055D
CENTER_NAME    = EARTH
REF_FRAME      = TEME
TIME_SYSTEM    = UTC
MEAN_ELEMENT_THEORY = SGP/SGP4

EPOCH          = 2025-12-24T19:24:34.704864
MEAN_MOTION    = 15.03128216
ECCENTRICITY   = .00141212
INCLINATION    = 62.7825
RA_OF_ASC_NODE = 148.4051
ARG_OF_PERICENTER = 317.2079
MEAN_ANOMALY   = 42.7919

EPHEMERIS_TYPE = 0
CLASSIFICATION_TYPE = U
NORAD_CAT_ID   = 20666
ELEMENT_SET_NO = 999
REV_AT_EPOCH   = 92693
BSTAR          = .19412868E-3
MEAN_MOTION_DOT = .2441E-4
MEAN_MOTION_DDOT = 0

CCSDS_OMM_VERS = 2.0
CREATION_DATE  = 
ORIGINATOR     = 

OBJECT_NAME    = SL-8 R/B
OBJECT_ID      = 1990-078B
CENTER_NAME    = EARTH
REF_FRAME      = TEME
TIME_SYSTEM    = UTC
MEAN_ELEMENT_THEORY = SGP/SGP4

EPOCH          = 2025-12-25T06:06:00.048672
MEAN_MOTION    = 14.86380124
ECCENTRICITY   = .03701441
INCLINATION    = 82.9065
RA_OF_ASC_NODE = 318.1046
ARG_OF_PERICENTER = 263.7604
MEAN_ANOMALY   = 92.1340

EPHEMERIS_TYPE = 0
CLASSIFICATION_TYPE = U
NORAD_CAT_ID   = 20775
ELEMENT_SET_NO = 999
REV_AT_EPOCH   = 79823
BSTAR          = .51409071E-3
MEAN_MOTION_DOT = .16657E-3
MEAN_MOTION_DDOT = 0

CCSDS_OMM_VERS = 2.0
CREATION_DATE  = 
ORIGINATOR     = 

OBJECT_NAME    = SL-8 R/B
OBJECT_ID      = 1991-006B
CENTER_NAME    = EARTH
REF_FRAME      = TEME
TIME_SYSTEM    = UTC
MEAN_ELEMENT_THEORY = SGP/SGP4

EPOCH          = 2025-12-25T02:37:11.244288
MEAN_MOTION    = 13.77492508
ECCENTRICITY   = .00212817
INCLINATION    = 82.9415
RA_OF_ASC_NODE = 225.5122
ARG_OF_PERICENTER = 243.0419
MEAN_ANOMALY   = 228.1074

EPHEMERIS_TYPE = 0
CLASSIFICATION_TYPE = U
NORAD_CAT_ID   = 21088
ELEMENT_SET_NO = 999
REV_AT_EPOCH   = 75380
BSTAR          = .99476605E-4
MEAN_MOTION_DOT = .114E-5
MEAN_MOTION_DDOT = 0

CCSDS_OMM_VERS = 2.0
CREATION_DATE  = 
ORIGINATOR     = 

OBJECT_NAME    = OKEAN-3
OBJECT_ID      = 1991-039A
CENTER_NAME    = EARTH
REF_FRAME      = TEME
TIME_SYSTEM    = UTC
MEAN_ELEMENT_THEORY = SGP/SGP4

EPOCH          = 2025-12-25T02:55:58.606176
MEAN_MOTION    = 15.04193721
ECCENTRICITY   = .00136243
INCLINATION    = 82.5164
RA_OF_ASC_NODE = 49.0615
ARG_OF_PERICENTER = 218.4339
MEAN_ANOMALY   = 141.5918

EPHEMERIS_TYPE = 0
CLASSIFICATION_TYPE = U
NORAD_CAT_ID   = 21397
ELEMENT_SET_NO = 999
REV_AT_EPOCH   = 85382
BSTAR          = .19844651E-3
MEAN_MOTION_DOT = .2787E-4
MEAN_MOTION_DDOT = 0

CCSDS_OMM_VERS = 2.0
CREATION_DATE  = 
ORIGINATOR     = 

OBJECT_NAME    = COSMOS 2151
OBJECT_ID      = 1991-042A
CENTER_NAME    = EARTH
REF_FRAME      = TEME
TIME_SYSTEM    = UTC
MEAN_ELEMENT_THEORY = SGP/SGP4

EPOCH          = 2025-12-25T04:00:12.963744
MEAN_MOTION    = 14.99731802
ECCENTRICITY   = .00115506
INCLINATION    = 82.4965
RA_OF_ASC_NODE = 155.5269
ARG_OF_PERICENTER = 316.1519
MEAN_ANOMALY   = 43.8786

EPHEMERIS_TYPE = 0
CLASSIFICATION_TYPE = U
NORAD_CAT_ID   = 21422
ELEMENT_SET_NO = 999
REV_AT_EPOCH   = 85202
BSTAR          = .16955418E-3
MEAN_MOTION_DOT = .2122E-4
MEAN_MOTION_DDOT = 0

