DELTA 2 R/B(1)          
1 20453U 90008B   25358.57060577  .00049780  00000+0  77081-3 0  9994
2 20453  35.6078 304.0816 0110286 285.7253  73.1339 15.46182265914467
COSMOS 2058             
1 20465U 90010A   25359.07928901  .00005350  00000+0  32208-3 0  9997
2 20465  82.4712 120.8941 0009472 225.7665 134.2788 15.10589909930971
SL-14 R/B               
1 20466U 90010B   25359.02152312  .00000507  00000+0  58613-4 0  9996
2 20466  82.5023 337.5115 0019697 181.3124 178.8043 14.83482478917419
SL-14 R/B               
1 20511U 90018B   25359.23755638  .00000555  00000+0  66824-4 0  9994
2 20511  82.5221 292.6840 0015910 342.5479  17.5186 14.82059311911555
HST                     
1 20580U 90037B   25358.87405597  .00006269  00000+0  21374-3 0  9994
2 20580  28.4657 189.8864 0002397  20.4896 339.5795 15.28198095761859
SL-16 R/B               
1 20625U 90046B   25359.25847579 -.00000132  00000+0 -43746-4 0  9990
2 20625  70.9991  94.2318 0012262  51.6774 308.5449 14.14997478837861
COSMOS 2084             
1 20663U 90055A   25358.99246393  .00002887  00000+0  21429-3 0  9999
2 20663  62.7887 230.2421 0029750 176.3170 183.8155 15.05088593925077
SL-6 R/B(2)             
1 20666U 90055D   25358.80873501  .00002441  00000+0  19413-3 0  9995
2 20666  62.7825 148.4051 0014121 317.2079  42.7919 15.03128216926933
SL-8 R/B                
1 20775U 90078B   25359.25416723  .00016657  00000+0  51409-3 0  9995
2 20775  82.9065 318.1046 0370144 263.7604  92.1340 14.86380124798238
SL-8 R/B                
1 21088U 91006B   25359.10915792  .00000114  00000+0  99477-4 0  9998
2 21088  82.9415 225.5122 0021281 243.0419 228.1074 13.77492508753809
OKEAN-3                 
1 21397U 91039A   25359.12220609  .00002787  00000+0  19845-3 0  9993
2 21397  82.5164  49.0615 0013624 218.4339 141.5918 15.04193721853829
COSMOS 2151             
1 21422U 91042A   25359.16681671  .00002122  00000+0  16955-3 0  9992
2 21422  82.4965 155.5269 0011550 316.1519  43.8786 14.99731802852025
